[{"id": "id", "accuracy": "accuracy", "formatted address": "formatted_address", "google_place_id": "google_place_id", "input_string": "input_string", "latitude": "latitude", "longitude": "longitude", "number_of_results": "number_of_results", "postcode": "postcode", "status": "status", "type": "type"}, {"id": "0", "accuracy": "ROOFTOP", "formatted address": "210 E 33rd St, New York, NY 10016, USA", "google_place_id": "ChIJ3aagAgZZwokR7vBZaqwatTY", "input_string": "210 East 33rd Street", "latitude": "40.7444966", "longitude": "-73.9776384", "number_of_results": "2", "postcode": "10016", "status": "OK", "type": "premise"}, {"id": "1", "accuracy": "ROOFTOP", "formatted address": "325 S 3rd St, Brooklyn, NY 11211, USA", "google_place_id": "ChIJD__hleFbwokR3CX3E4N2nLU", "input_string": "325 South 3rd Street", "latitude": "40.7098922", "longitude": "-73.9547643", "number_of_results": "1", "postcode": "11211", "status": "OK", "type": "premise"}, {"id": "3", "accuracy": "ROOFTOP", "formatted address": "85-15 258th St, Queens, NY 11001, USA", "google_place_id": "ChIJSe7jol1iwokRIeat6iFU2C0", "input_string": "85-15 258th Street", "latitude": "40.7342879", "longitude": "-73.7086513", "number_of_results": "1", "postcode": "11001", "status": "OK", "type": "street_address"}, {"id": "4", "accuracy": "ROOFTOP", "formatted address": "281 9th Ave, New York, NY 10001, USA", "google_place_id": "ChIJh8P2ybBZwokR9v45x_G0gUE", "input_string": "281 Ninth Avenue", "latitude": "40.7490291", "longitude": "-74.000319", "number_of_results": "1", "postcode": "10001", "status": "OK", "type": "premise"}, {"id": "5", "accuracy": "ROOFTOP", "formatted address": "111 Columbia St, New York, NY 10002, USA", "google_place_id": "ChIJoXEAz35ZwokR_7TkZfNSLiA", "input_string": "111 Columbia Street", "latitude": "40.7195002", "longitude": "-73.9792392", "number_of_results": "2", "postcode": "10002", "status": "OK", "type": "street_address"}, {"id": "6", "accuracy": "ROOFTOP", "formatted address": "21-16 44th Rd, Long Island City, NY 11101, USA", "google_place_id": "ChIJ7b2LayhZwokRSkZPGMm6tQI", "input_string": "21-16 44th Road", "latitude": "40.7485509", "longitude": "-73.946414", "number_of_results": "1", "postcode": "11101", "status": "OK", "type": "premise"}, {"id": "7", "accuracy": "ROOFTOP", "formatted address": "145 Stanton St, New York, NY 10002, USA", "google_place_id": "ChIJB-XFd4FZwokR1nzxZJ3pI-8", "input_string": "145 Stanton Street", "latitude": "40.720088", "longitude": "-73.9860332", "number_of_results": "1", "postcode": "10002", "status": "OK", "type": "premise"}, {"id": "8", "accuracy": "ROOFTOP", "formatted address": "293 E Broadway, New York, NY 10002, USA", "google_place_id": "ChIJW-GpStVbwokRjoqSATreexA", "input_string": "293 E Broadway", "latitude": "40.7142834", "longitude": "-73.982957", "number_of_results": "1", "postcode": "10002", "status": "OK", "type": "premise"}, {"id": "9", "accuracy": "ROOFTOP", "formatted address": "735 West End Ave, New York, NY 10025, USA", "google_place_id": "ChIJv26YTSj2wokRAZ9KUVLFBKs", "input_string": "735 West End Ave", "latitude": "40.7952089", "longitude": "-73.9739578", "number_of_results": "1", "postcode": "10025", "status": "OK", "type": "premise"}, {"id": "10", "accuracy": "ROOFTOP", "formatted address": "210 E 33rd St, New York, NY 10016, USA", "google_place_id": "ChIJ3aagAgZZwokR7vBZaqwatTY", "input_string": "210 East 33rd Street", "latitude": "40.7444966", "longitude": "-73.9776384", "number_of_results": "2", "postcode": "10016", "status": "OK", "type": "premise"}, {"id": "11", "accuracy": "ROOFTOP", "formatted address": "281 9th Ave, New York, NY 10001, USA", "google_place_id": "ChIJh8P2ybBZwokR9v45x_G0gUE", "input_string": "281 Ninth Avenue", "latitude": "40.7490291", "longitude": "-74.000319", "number_of_results": "1", "postcode": "10001", "status": "OK", "type": "premise"}, {"id": "12", "accuracy": "ROOFTOP", "formatted address": "730 E 12th St, New York, NY 10009, USA", "google_place_id": "ChIJ5e-O73BZwokRPo9rdiSjXDk", "input_string": "730 East 12th Street", "latitude": "40.7261446", "longitude": "-73.9750657", "number_of_results": "1", "postcode": "10009", "status": "OK", "type": "premise"}, {"id": "13", "accuracy": "ROOFTOP", "formatted address": "111 Columbia St, New York, NY 10002, USA", "google_place_id": "ChIJoXEAz35ZwokR_7TkZfNSLiA", "input_string": "111 Columbia Street", "latitude": "40.7195002", "longitude": "-73.9792392", "number_of_results": "2", "postcode": "10002", "status": "OK", "type": "street_address"}, {"id": "14", "accuracy": "ROOFTOP", "formatted address": "735 West End Ave, New York, NY 10025, USA", "google_place_id": "ChIJv26YTSj2wokRAZ9KUVLFBKs", "input_string": "735 West End Ave", "latitude": "40.7952089", "longitude": "-73.9739578", "number_of_results": "1", "postcode": "10025", "status": "OK", "type": "premise"}, {"id": "15", "accuracy": "ROOFTOP", "formatted address": "735 West End Ave, New York, NY 10025, USA", "google_place_id": "ChIJv26YTSj2wokRAZ9KUVLFBKs", "input_string": "735 West End Ave", "latitude": "40.7952089", "longitude": "-73.9739578", "number_of_results": "1", "postcode": "10025", "status": "OK", "type": "premise"}, {"id": "16", "accuracy": "ROOFTOP", "formatted address": "293 E Broadway, New York, NY 10002, USA", "google_place_id": "ChIJW-GpStVbwokRjoqSATreexA", "input_string": "293 E Broadway", "latitude": "40.7142834", "longitude": "-73.982957", "number_of_results": "1", "postcode": "10002", "status": "OK", "type": "premise"}, {"id": "17", "accuracy": "ROOFTOP", "formatted address": "317 W 52nd St, New York, NY 10019, USA", "google_place_id": "ChIJwxwnaldYwokRvVKS29ZthIE", "input_string": "317 West 52nd Street", "latitude": "40.7640948", "longitude": "-73.9860332", "number_of_results": "2", "postcode": "10019", "status": "OK", "type": "premise"}, {"id": "18", "accuracy": "ROOFTOP", "formatted address": "314 Pacific St, Brooklyn, NY 11201, USA", "google_place_id": "ChIJ64mo-01awokRa2APwqzaNps", "input_string": "314 Pacific Street", "latitude": "40.687092", "longitude": "-73.9883804", "number_of_results": "2", "postcode": "11201", "status": "OK", "type": "premise"}, {"id": "19", "accuracy": "ROOFTOP", "formatted address": "85-15 258th St, Queens, NY 11001, USA", "google_place_id": "ChIJSe7jol1iwokRIeat6iFU2C0", "input_string": "85-15 258th Street", "latitude": "40.7342879", "longitude": "-73.7086513", "number_of_results": "1", "postcode": "11001", "status": "OK", "type": "street_address"}, {"id": "20", "accuracy": "ROOFTOP", "formatted address": "730 E 12th St, New York, NY 10009, USA", "google_place_id": "ChIJ5e-O73BZwokRPo9rdiSjXDk", "input_string": "730 East 12th Street", "latitude": "40.7261446", "longitude": "-73.9750657", "number_of_results": "1", "postcode": "10009", "status": "OK", "type": "premise"}, {"id": "21", "accuracy": "ROOFTOP", "formatted address": "281 9th Ave, New York, NY 10001, USA", "google_place_id": "ChIJh8P2ybBZwokR9v45x_G0gUE", "input_string": "281 Ninth Avenue", "latitude": "40.7490291", "longitude": "-74.000319", "number_of_results": "1", "postcode": "10001", "status": "OK", "type": "premise"}, {"id": "22", "accuracy": "ROOFTOP", "formatted address": "145 Stanton St, New York, NY 10002, USA", "google_place_id": "ChIJB-XFd4FZwokR1nzxZJ3pI-8", "input_string": "145 Stanton Street", "latitude": "40.720088", "longitude": "-73.9860332", "number_of_results": "1", "postcode": "10002", "status": "OK", "type": "premise"}, {"id": "23", "accuracy": "ROOFTOP", "formatted address": "111 Columbia St, New York, NY 10002, USA", "google_place_id": "ChIJoXEAz35ZwokR_7TkZfNSLiA", "input_string": "111 Columbia Street", "latitude": "40.7195002", "longitude": "-73.9792392", "number_of_results": "2", "postcode": "10002", "status": "OK", "type": "street_address"}, {"id": "24", "accuracy": "ROOFTOP", "formatted address": "735 West End Ave, New York, NY 10025, USA", "google_place_id": "ChIJv26YTSj2wokRAZ9KUVLFBKs", "input_string": "735 West End Ave", "latitude": "40.7952089", "longitude": "-73.9739578", "number_of_results": "1", "postcode": "10025", "status": "OK", "type": "premise"}, {"id": "25", "accuracy": "ROOFTOP", "formatted address": "21-16 44th Rd, Long Island City, NY 11101, USA", "google_place_id": "ChIJ7b2LayhZwokRSkZPGMm6tQI", "input_string": "21-16 44th Road", "latitude": "40.7485509", "longitude": "-73.946414", "number_of_results": "1", "postcode": "11101", "status": "OK", "type": "premise"}, {"id": "26", "accuracy": "ROOFTOP", "formatted address": "220 Henry St, New York, NY 10002, USA", "google_place_id": "ChIJu_taqitawokRmLJrfuHelns", "input_string": "220 Henry Street", "latitude": "40.7134455", "longitude": "-73.9860332", "number_of_results": "2", "postcode": "10002", "status": "OK", "type": "premise"}, {"id": "27", "accuracy": "ROOFTOP", "formatted address": "293 E Broadway, New York, NY 10002, USA", "google_place_id": "ChIJW-GpStVbwokRjoqSATreexA", "input_string": "293 E Broadway", "latitude": "40.7142834", "longitude": "-73.982957", "number_of_results": "1", "postcode": "10002", "status": "OK", "type": "premise"}, {"id": "28", "accuracy": "ROOFTOP", "formatted address": "210 E 33rd St, New York, NY 10016, USA", "google_place_id": "ChIJ3aagAgZZwokR7vBZaqwatTY", "input_string": "210 East 33rd Street", "latitude": "40.7444966", "longitude": "-73.9776384", "number_of_results": "2", "postcode": "10016", "status": "OK", "type": "premise"}, {"id": "29", "accuracy": "ROOFTOP", "formatted address": "317 W 52nd St, New York, NY 10019, USA", "google_place_id": "ChIJwxwnaldYwokRvVKS29ZthIE", "input_string": "317 West 52nd Street", "latitude": "40.7640948", "longitude": "-73.9860332", "number_of_results": "2", "postcode": "10019", "status": "OK", "type": "premise"},"ChIJz4_nc1oE9YgRxihstPqFSoM", "input_string": "", "latitude": "33.791638", "longitude": "-84.389488", "number_of_results": "1", "postcode": "30309", "status": "OK", "type": "bar,establishment,food,point_of_interest,restaurant"}]